[{"OBJECT_NAME":"STARLINK-5739","OBJECT_ID":"2023-020C","EPOCH":"2026-03-09T03:28:55.193664","MEAN_MOTION":15.02532576,"ECCENTRICITY":8.295e-5,"INCLINATION":43.0046,"RA_OF_ASC_NODE":7.92,"ARG_OF_PERICENTER":285.7649,"MEAN_ANOMALY":74.3102,"EPHEMERIS_TYPE":0,"CLASSIFICATION_TYPE":"U","NORAD_CAT_ID":55571,"ELEMENT_SET_NO":999,"REV_AT_EPOCH":16883,"BSTAR":2.0626068e-5,"MEAN_MOTION_DOT":7.5e-7,"MEAN_MOTION_DDOT":0},{"OBJECT_NAME":"OBJECT D","OBJECT_ID":"2025-292D","EPOCH":"2026-03-09T21:45:32.907168","MEAN_MOTION":15.05344615,"ECCENTRICITY":0.00138692,"INCLINATION":97.6365,"RA_OF_ASC_NODE":145.5948,"ARG_OF_PERICENTER":343.7291,"MEAN_ANOMALY":16.3488,"EPHEMERIS_TYPE":0,"CLASSIFICATION_TYPE":"U","NORAD_CAT_ID":66996,"ELEMENT_SET_NO":999,"REV_AT_EPOCH":1350,"BSTAR":0.00030674408,"MEAN_MOTION_DOT":4.34e-5,"MEAN_MOTION_DDOT":0}]
